[{"OBJECT_NAME":"STARLINK-3202","OBJECT_ID":"2021-115U","EPOCH":"2026-03-09T11:57:49.350240","MEAN_MOTION":15.08830345,"ECCENTRICITY":0.00014638,"INCLINATION":53.2174,"RA_OF_ASC_NODE":149.9773,"ARG_OF_PERICENTER":89.0826,"MEAN_ANOMALY":271.0333,"EPHEMERIS_TYPE":0,"CLASSIFICATION_TYPE":"U","NORAD_CAT_ID":49742,"ELEMENT_SET_NO":999,"REV_AT_EPOCH":23550,"BSTAR":3.4768454e-5,"MEAN_MOTION_DOT":2.65e-6,"MEAN_MOTION_DDOT":0},{"OBJECT_NAME":"UNKNOWN","OBJECT_ID":"","EPOCH":"2026-03-09T06:54:16.920576","MEAN_MOTION":14.16736547,"ECCENTRICITY":0.0425292,"INCLINATION":65.6395,"RA_OF_ASC_NODE":176.1827,"ARG_OF_PERICENTER":77.7512,"MEAN_ANOMALY":316.077,"EPHEMERIS_TYPE":0,"CLASSIFICATION_TYPE":"U","NORAD_CAT_ID":87245,"ELEMENT_SET_NO":999,"REV_AT_EPOCH":62646,"BSTAR":0.00096148,"MEAN_MOTION_DOT":4.608e-5,"MEAN_MOTION_DDOT":0}]
